{"type": "FeatureCollection", "features": [ {"type": "Feature", "properties": {"norad_id": 32126, "name": "FENGYUN 1C DEB", "group": "fengyun-1c-debris", "lat": -45.190982410924796, "lon": -122.19004098002918, "alt_km": 992.535698966105, "timestamp": "2025-12-18T21:31:51.287052+00:00", "meta": {"OBJECT_NAME": "FENGYUN 1C DEB", "OBJECT_ID": "1999-025CRU", "EPOCH": "2025-12-14T22:11:18.681792", "MEAN_MOTION": 13.56802944, "ECCENTRICITY": 0.02807648, "INCLINATION": 99.1097, "RA_OF_ASC_NODE": 224.8335, "ARG_OF_PERICENTER": 249.9124, "MEAN_ANOMALY": 107.16, "EPHEMERIS_TYPE": 0, "CLASSIFICATION_TYPE": "U", "NORAD_CAT_ID": 32126, "ELEMENT_SET_NO": 999, "REV_AT_EPOCH": 61744, "BSTAR": 0.001056147, "MEAN_MOTION_DOT": 9.24e-06, "MEAN_MOTION_DDOT": 0}, "tle": {"line1": "1 32126U 99025CRU 25348.92452178  .00000924  00000+0  10561-2 0  9998", "line2": "2 32126  99.1097 224.8335 0280764 249.9124 107.1600 13.56802944617445"}}, "geometry": {"type": "Point", "coordinates": [-122.19004098002918, -45.190982410924796]}}, {"type": "Feature", "properties": {"norad_id": 32128, "name": "FENGYUN 1C DEB", "group": "fengyun-1c-debris", "lat": 2.147940834938796, "lon": 38.65876343615215, "alt_km": 1179.7438484301001, "timestamp": "2025-12-18T21:31:51.287062+00:00", "meta": {"OBJECT_NAME": "FENGYUN 1C DEB", "OBJECT_ID": "1999-025CRW", "EPOCH": "2025-12-14T21:03:58.317984", "MEAN_MOTION": 13.94226768, "ECCENTRICITY": 0.0397234, "INCLINATION": 99.0319, "RA_OF_ASC_NODE": 35.0592, "ARG_OF_PERICENTER": 217.0063, "MEAN_ANOMALY": 140.309, "EPHEMERIS_TYPE": 0, "CLASSIFICATION_TYPE": "U", "NORAD_CAT_ID": 32128, "ELEMENT_SET_NO": 999, "REV_AT_EPOCH": 63015, "BSTAR": 0.00040307328, "MEAN_MOTION_DOT": 9.82e-06, "MEAN_MOTION_DDOT": 0}, "tle": {"line1": "1 32128U 99025CRW 25348.87775831  .00000982  00000+0  40307-3 0  9994", "line2": "2 32128  99.0319  35.0592 0397234 217.0063 140.3090 13.94226768630150"}}, "geometry": {"type": "Point", "coordinates": [38.65876343615215, 2.147940834938796]}}, {"type": "Feature", "properties": {"norad_id": 32129, "name": "FENGYUN 1C DEB", "group": "fengyun-1c-debris", "lat": -66.59342152002392, "lon": 133.1589696222359, "alt_km": 798.384189995104, "timestamp": "2025-12-18T21:31:51.287072+00:00", "meta": {"OBJECT_NAME": "FENGYUN 1C DEB", "OBJECT_ID": "1999-025CRX", "EPOCH": "2025-12-15T06:35:06.946944", "MEAN_MOTION": 14.28524934, "ECCENTRICITY": 0.00675694, "INCLINATION": 99.0595, "RA_OF_ASC_NODE": 107.7711, "ARG_OF_PERICENTER": 26.1912, "MEAN_ANOMALY": 5.9768, "EPHEMERIS_TYPE": 0, "CLASSIFICATION_TYPE": "U", "NORAD_CAT_ID": 32129, "ELEMENT_SET_NO": 999, "REV_AT_EPOCH": 94263, "BSTAR": 0.0015513104, "MEAN_MOTION_DOT": 3.939e-05, "MEAN_MOTION_DDOT": 0}, "tle": {"line1": "1 32129U 99025CRX 25349.27438596  .00003939  00000+0  15513-2 0  9999", "line2": "2 32129  99.0595 107.7711 0067569  26.1912   5.9768 14.28524934942635"}}, "geometry": {"type": "Point", "coordinates": [133.1589696222359, -66.59342152002392]}}, {"type": "Feature", "properties": {"norad_id": 32130, "name": "FENGYUN 1C DEB", "group": "fengyun-1c-debris", "lat": -1.0687150753012178, "lon": 159.79353767870387, "alt_km": 729.2921160286596, "timestamp": "2025-12-18T21:31:51.287083+00:00", "meta": {"OBJECT_NAME": "FENGYUN 1C DEB", "OBJECT_ID": "1999-025CRY", "EPOCH": "2025-12-16T17:45:08.612064", "MEAN_MOTION": 14.37558126, "ECCENTRICITY": 0.00823888, "INCLINATION": 98.9033, "RA_OF_ASC_NODE": 157.3928, "ARG_OF_PERICENTER": 318.2989, "MEAN_ANOMALY": 41.1935, "EPHEMERIS_TYPE": 0, "CLASSIFICATION_TYPE": "U", "NORAD_CAT_ID": 32130, "ELEMENT_SET_NO": 999, "REV_AT_EPOCH": 96292, "BSTAR": 0.00039412838, "MEAN_MOTION_DOT": 1.18e-05, "MEAN_MOTION_DDOT": 0}, "tle": {"line1": "1 32130U 99025CRY 25350.73968301  .00001180  00000+0  39413-3 0  9998", "line2": "2 32130  98.9033 157.3928 0082388 318.2989  41.1935 14.37558126962920"}}, "geometry": {"type": "Point", "coordinates": [159.79353767870387, -1.0687150753012178]}}, {"type": "Feature", "properties": {"norad_id": 32133, "name": "FENGYUN 1C DEB", "group": "fengyun-1c-debris", "lat": -57.79622927172239, "lon": 7.4170855290078865, "alt_km": 859.5789961737792, "timestamp": "2025-12-18T21:31:51.287092+00:00", "meta": {"OBJECT_NAME": "FENGYUN 1C DEB", "OBJECT_ID": "1999-025CSB", "EPOCH": "2025-12-14T11:07:28.655904", "MEAN_MOTION": 14.18073011, "ECCENTRICITY": 0.0036436, "INCLINATION": 98.4317, "RA_OF_ASC_NODE": 349.5844, "ARG_OF_PERICENTER": 96.0105, "MEAN_ANOMALY": 264.5225, "EPHEMERIS_TYPE": 0, "CLASSIFICATION_TYPE": "U", "NORAD_CAT_ID": 32133, "ELEMENT_SET_NO": 999, "REV_AT_EPOCH": 94999, "BSTAR": 0.00024822203, "MEAN_MOTION_DOT": 4.72e-06, "MEAN_MOTION_DDOT": 0}, "tle": {"line1": "1 32133U 99025CSB 25348.46352611  .00000472  00000+0  24822-3 0  9990", "line2": "2 32133  98.4317 349.5844 0036436  96.0105 264.5225 14.18073011949998"}}, "geometry": {"type": "Point", "coordinates": [7.4170855290078865, -57.79622927172239]}}, {"type": "Feature", "properties": {"norad_id": 32134, "name": "FENGYUN 1C DEB", "group": "fengyun-1c-debris", "lat": -48.61427520697529, "lon": 166.0556272788599, "alt_km": 647.5936052792003, "timestamp": "2025-12-18T21:31:51.287103+00:00", "meta": {"OBJECT_NAME": "FENGYUN 1C DEB", "OBJECT_ID": "1999-025CSC", "EPOCH": "2025-12-17T11:24:43.243200", "MEAN_MOTION": 14.21573578, "ECCENTRICITY": 0.02590122, "INCLINATION": 98.594, "RA_OF_ASC_NODE": 354.5516, "ARG_OF_PERICENTER": 249.81, "MEAN_ANOMALY": 269.0237, "EPHEMERIS_TYPE": 0, "CLASSIFICATION_TYPE": "U", "NORAD_CAT_ID": 32134, "ELEMENT_SET_NO": 999, "REV_AT_EPOCH": 95214, "BSTAR": 0.00046613441, "MEAN_MOTION_DOT": 1.386e-05, "MEAN_MOTION_DDOT": 0}, "tle": {"line1": "1 32134U 99025CSC 25351.47550050  .00001386  00000+0  46613-3 0  9990", "line2": "2 32134  98.5940 354.5516 0259012 249.8100 269.0237 14.21573578952145"}}, "geometry": {"type": "Point", "coordinates": [166.0556272788599, -48.61427520697529]}}, {"type": "Feature", "properties": {"norad_id": 32137, "name": "FENGYUN 1C DEB", "group": "fengyun-1c-debris", "lat": -65.80995340910592, "lon": -78.83367885348274, "alt_km": 710.1613975305945, "timestamp": "2025-12-18T21:31:51.287113+00:00", "meta": {"OBJECT_NAME": "FENGYUN 1C DEB", "OBJECT_ID": "1999-025CSF", "EPOCH": "2025-12-17T15:13:57.776736", "MEAN_MOTION": 14.81308237, "ECCENTRICITY": 0.0187224, "INCLINATION": 98.441, "RA_OF_ASC_NODE": 119.1403, "ARG_OF_PERICENTER": 18.4875, "MEAN_ANOMALY": 342.302, "EPHEMERIS_TYPE": 0, "CLASSIFICATION_TYPE": "U", "NORAD_CAT_ID": 32137, "ELEMENT_SET_NO": 999, "REV_AT_EPOCH": 66803, "BSTAR": 0.00053850151, "MEAN_MOTION_DOT": 5.625e-05, "MEAN_MOTION_DDOT": 0}, "tle": {"line1": "1 32137U 99025CSF 25351.63469649  .00005625  00000+0  53850-3 0  9995", "line2": "2 32137  98.4410 119.1403 0187224  18.4875 342.3020 14.81308237668034"}}, "geometry": {"type": "Point", "coordinates": [-78.83367885348274, -65.80995340910592]}}, {"type": "Feature", "properties": {"norad_id": 32141, "name": "FENGYUN 1C DEB", "group": "fengyun-1c-debris", "lat": -48.03362962004747, "lon": 4.9108653775258855, "alt_km": 914.775768849333, "timestamp": "2025-12-18T21:31:51.287123+00:00", "meta": {"OBJECT_NAME": "FENGYUN 1C DEB", "OBJECT_ID": "1999-025CSK", "EPOCH": "2025-11-20T23:04:46.058016", "MEAN_MOTION": 14.03501767, "ECCENTRICITY": 0.00731678, "INCLINATION": 98.7436, "RA_OF_ASC_NODE": 328.1999, "ARG_OF_PERICENTER": 269.2169, "MEAN_ANOMALY": 90.0615, "EPHEMERIS_TYPE": 0, "CLASSIFICATION_TYPE": "U", "NORAD_CAT_ID": 32141, "ELEMENT_SET_NO": 999, "REV_AT_EPOCH": 94638, "BSTAR": 0.00056632309, "MEAN_MOTION_DOT": 8.66e-06, "MEAN_MOTION_DDOT": 0}, "tle": {"line1": "1 32141U 99025CSK 25324.96164419  .00000866  00000+0  56632-3 0  9996", "line2": "2 32141  98.7436 328.1999 0073167 269.2169  90.0615 14.03501767946385"}}, "geometry": {"type": "Point", "coordinates": [4.9108653775258855, -48.03362962004747]}}, {"type": "Feature", "properties": {"norad_id": 32143, "name": "FENGYUN 1C DEB", "group": "fengyun-1c-debris", "lat": -53.57417603393977, "lon": 137.80709535408562, "alt_km": 899.403763940064, "timestamp": "2025-12-18T21:31:51.287133+00:00", "meta": {"OBJECT_NAME": "FENGYUN 1C DEB", "OBJECT_ID": "1999-025CSM", "EPOCH": "2025-12-17T03:47:36.858336", "MEAN_MOTION": 14.17974045, "ECCENTRICITY": 0.01045676, "INCLINATION": 98.5967, "RA_OF_ASC_NODE": 327.9519, "ARG_OF_PERICENTER": 96.0348, "MEAN_ANOMALY": 265.2755, "EPHEMERIS_TYPE": 0, "CLASSIFICATION_TYPE": "U", "NORAD_CAT_ID": 32143, "ELEMENT_SET_NO": 999, "REV_AT_EPOCH": 95996, "BSTAR": 0.000152935, "MEAN_MOTION_DOT": 2.89e-06, "MEAN_MOTION_DDOT": 0}, "tle": {"line1": "1 32143U 99025CSM 25351.15806549  .00000289  00000+0  15294-3 0  9994", "line2": "2 32143  98.5967 327.9519 0104567  96.0348 265.2755 14.17974045959960"}}, "geometry": {"type": "Point", "coordinates": [137.80709535408562, -53.57417603393977]}}, {"type": "Feature", "properties": {"norad_id": 32150, "name": "FENGYUN 1C DEB", "group": "fengyun-1c-debris", "lat": -68.03464471351961, "lon": 40.090623170057626, "alt_km": 755.3900610866185, "timestamp": "2025-12-18T21:31:51.287143+00:00", "meta": {"OBJECT_NAME": "FENGYUN 1C DEB", "OBJECT_ID": "1999-025CSU", "EPOCH": "2025-12-17T19:32:44.216160", "MEAN_MOTION": 14.60679601, "ECCENTRICITY": 0.01717549, "INCLINATION": 99.1924, "RA_OF_ASC_NODE": 15.2172, "ARG_OF_PERICENTER": 52.3233, "MEAN_ANOMALY": 309.3402, "EPHEMERIS_TYPE": 0, "CLASSIFICATION_TYPE": "U", "NORAD_CAT_ID": 32150, "ELEMENT_SET_NO": 999, "REV_AT_EPOCH": 97780, "BSTAR": 0.00013273529, "MEAN_MOTION_DOT": 7.28e-06, "MEAN_MOTION_DDOT": 0}, "tle": {"line1": "1 32150U 99025CSU 25351.81440065  .00000728  00000+0  13274-3 0  9996", "line2": "2 32150  99.1924  15.2172 0171754  52.3233 309.3402 14.60679601977800"}}, "geometry": {"type": "Point", "coordinates": [40.090623170057626, -68.03464471351961]}}]}